G90 G21
G0 Z2
G91
G0 X8.923 Y-19.385
G90 G1 Z0 F3000
G91
G1 X-0.615 Y0.615 F3000
G1 X-1.231 Y0.462 F3000
G1 X-1.538 Y-0.308 F3000
G1 X-0.769 Y-0.615 F3000
G90 G0 Z2
G91
G0 X1.538 Y2.308
G90 G1 Z0 F3000
G91
G1 X0.000 Y2.308 F3000
G1 X-1.077 Y0.769 F3000
G1 X0.000 Y1.231 F3000
G1 X3.231 Y0.000 F3000
G1 X0.000 Y-1.231 F3000
G1 X-0.308 Y-0.308 F3000
G1 X-0.615 Y-0.154 F3000
G1 X-0.308 Y0.308 F3000
G1 X-0.615 Y0.000 F3000
G1 X-0.462 Y-0.308 F3000
G90 G0 Z2
G91
G0 X1.385 Y-0.615
G90 G1 Z0 F3000
G91
G1 X0.000 Y-1.846 F3000
G90 G0 Z2
G91
G0 X-0.615 Y4.000
G90 G1 Z0 F3000
G91
G1 X0.000 Y-1.077 F3000
G90 G0 Z2
G91
G0 X-1.692 Y2.000
G90 G1 Z0 F3000
G91
G1 X2.615 Y0.615 F3000
G1 X0.000 Y0.154 F3000
G1 X0.462 Y0.154 F3000
G1 X-0.462 Y0.000 F3000
G1 X0.000 Y0.308 F3000
G1 X-1.538 Y0.154 F3000
G1 X-0.308 Y0.308 F3000
G1 X-0.769 Y0.154 F3000
G90 G0 Z2
G91
G0 X1.077 Y-0.615
G90 G1 Z0 F3000
G91
G1 X0.000 Y-0.769 F3000
G90 G0 Z2
G91
G0 X0.615 Y4.769
G90 G1 Z0 F3000
G91
G1 X0.308 Y0.154 F3000
G1 X0.000 Y0.769 F3000
G1 X-0.308 Y0.308 F3000
G1 X-0.462 Y0.000 F3000
G1 X-0.308 Y-1.231 F3000
G1 X-0.769 Y-0.154 F3000
G1 X-0.154 Y0.154 F3000
G1 X0.154 Y1.385 F3000
G90 G0 Z2
G91
G0 X1.538 Y2.308
G90 G1 Z0 F3000
G91
G1 X-0.154 Y-0.154 F3000
G1 X0.462 Y-1.077 F3000
G1 X0.000 Y0.308 F3000
G1 X-0.615 Y0.769 F3000
G1 X-1.385 Y0.154 F3000
G90 G0 Z2
G91
G0 X2.000 Y2.154
G90 G1 Z0 F3000
G91
G1 X0.000 Y-0.769 F3000
G1 X-0.615 Y-0.462 F3000
G1 X-0.923 Y0.000 F3000
G1 X-0.462 Y0.308 F3000
G1 X0.000 Y0.923 F3000
G1 X0.615 Y0.615 F3000
G1 X0.615 Y0.000 F3000
G1 X-0.923 Y-0.154 F3000
G1 X-0.308 Y-0.308 F3000
G90 G0 Z2
G91
G0 X2.000 Y2.923
G90 G1 Z0 F3000
G91
G1 X0.000 Y-1.538 F3000
G90 G0 Z2
G91
G0 X0.769 Y0.923
G90 G1 Z0 F3000
G91
G1 X-2.308 Y0.000 F3000
G1 X-0.462 Y-0.308 F3000
G1 X-0.154 Y-0.462 F3000
G1 X0.154 Y-0.154 F3000
G90 G0 Z2
G91
G0 X1.385 Y2.154
G90 G1 Z0 F3000
G91
G1 X0.615 Y0.462 F3000
G1 X0.000 Y0.769 F3000
G1 X-0.769 Y0.615 F3000
G1 X-0.615 Y0.000 F3000
G1 X-0.615 Y-0.615 F3000
G1 X0.000 Y-0.923 F3000
G1 X0.462 Y-0.308 F3000
G90 G0 Z2
G91
G0 X-0.462 Y2.769
G90 G1 Z0 F3000
G91
G1 X0.000 Y1.077 F3000
G1 X0.308 Y0.308 F3000
G1 X1.231 Y0.000 F3000
G1 X0.462 Y-0.462 F3000
G1 X0.000 Y-0.769 F3000
G1 X-0.308 Y-0.308 F3000
G1 X-0.462 Y0.000 F3000
G1 X0.000 Y1.385 F3000
G1 X-0.923 Y0.000 F3000
G1 X-0.154 Y-0.154 F3000
G90 G0 Z2
G91
G0 X-3.538 Y1.077
G90 G1 Z0 F3000
G91
G1 X-2.462 Y0.000 F3000
G1 X-0.154 Y0.154 F3000
G1 X0.462 Y0.615 F3000
G1 X0.308 Y0.000 F3000
G1 X0.308 Y0.308 F3000
G1 X0.462 Y0.000 F3000
G1 X0.462 Y0.615 F3000
G1 X0.308 Y0.000 F3000
G1 X-2.769 Y0.154 F3000
G90 G0 Z2
G91
G0 X0.000 Y-1.692
G90 G1 Z0 F3000
G91
G1 X0.308 Y0.000 F3000
G1 X-0.154 Y-0.923 F3000
G1 X-0.308 Y-0.308 F3000
G90 G0 Z2
G91
G0 X2.000 Y-0.154
G90 G1 Z0 F3000
G91
G1 X0.000 Y-0.769 F3000
G1 X-0.615 Y-0.462 F3000
G1 X-0.923 Y0.000 F3000
G1 X-0.462 Y0.308 F3000
G1 X0.000 Y0.923 F3000
G1 X0.615 Y0.615 F3000
G1 X0.615 Y0.000 F3000
G90 G0 Z2
G91
G0 X0.462 Y-2.769
G90 G1 Z0 F3000
G91
G1 X-0.154 Y-0.154 F3000
G1 X0.462 Y-1.077 F3000
G1 X0.000 Y0.308 F3000
G1 X-0.615 Y0.769 F3000
G1 X-1.385 Y0.154 F3000
G90 G0 Z2
G91
G0 X0.000 Y-2.000
G90 G1 Z0 F3000
G91
G1 X1.538 Y0.000 F3000
G1 X0.462 Y-0.615 F3000
G1 X0.000 Y-0.308 F3000
G1 X-0.308 Y-0.308 F3000
G1 X0.308 Y-0.462 F3000
G1 X-0.154 Y-0.462 F3000
G1 X-1.538 Y0.000 F3000
G1 X0.000 Y-0.615 F3000
G1 X0.462 Y0.000 F3000
G1 X0.308 Y-0.615 F3000
G1 X0.000 Y-0.769 F3000
G90 G0 Z2
G91
G0 X0.769 Y1.231
G90 G1 Z0 F3000
G91
G1 X0.154 Y-0.308 F3000
G1 X0.000 Y-0.769 F3000
G1 X-0.462 Y-0.308 F3000
G1 X-1.538 Y0.000 F3000
G1 X-0.154 Y-0.154 F3000
G1 X0.308 Y0.308 F3000
G1 X-0.154 Y0.308 F3000
G1 X0.000 Y1.077 F3000
G1 X0.154 Y0.000 F3000
G90 G0 Z2
G91
G0 X-0.154 Y1.692
G90 G1 Z0 F3000
G91
G1 X1.538 Y0.000 F3000
G90 G0 Z2
G91
G0 X1.692 Y-4.923
G90 G1 Z0 F3000
G91
G1 X-3.231 Y0.000 F3000
G90 G0 Z2
G91
G0 X0.154 Y-4.154
G90 G1 Z0 F3000
G91
G1 X1.538 Y0.000 F3000
G1 X0.000 Y-0.462 F3000
G1 X0.308 Y-0.308 F3000
G1 X-0.154 Y-0.769 F3000
G1 X-1.692 Y-0.154 F3000
G90 G0 Z2
G91
G0 X0.923 Y-0.615
G90 G1 Z0 F3000
G91
G1 X0.000 Y-2.000 F3000
G1 X0.769 Y-0.615 F3000
G1 X-1.692 Y0.000 F3000
G1 X-0.154 Y-0.154 F3000
G1 X0.000 Y-0.923 F3000
G1 X0.308 Y-0.615 F3000
G1 X1.538 Y0.000 F3000
G90 G0 Z2
G91
G0 X1.231 Y-1.538
G90 G1 Z0 F3000
G91
G1 X-2.923 Y-2.923 F3000
G90 G0 Z2
G91
G0 X1.846 Y-1.538
G90 G1 Z0 F3000
G91
G1 X-1.385 Y-0.308 F3000
G1 X-0.462 Y-0.462 F3000
G1 X0.154 Y-0.308 F3000
G1 X1.231 Y-0.308 F3000
G1 X0.462 Y-0.308 F3000
G1 X0.308 Y-0.615 F3000
G1 X0.000 Y-1.846 F3000
G90 G0 Z2
G91
G0 X-1.231 Y1.846
G90 G1 Z0 F3000
G91
G1 X0.000 Y-2.000 F3000
G90 G0 Z2
G91
G0 X3.077 Y-1.385
G90 G1 Z0 F3000
G91
G1 X-5.077 Y0.000 F3000
G90 G0 Z2
G91
G0 X2.769 Y-2.462
G90 G1 Z0 F3000
G91
G1 X-1.692 Y0.000 F3000
G90 G0 Z2
G91
G0 X1.692 Y-5.385
G90 G1 Z0 F3000
G91
G1 X-2.308 Y0.000 F3000
G1 X-0.308 Y0.308 F3000
G1 X0.000 Y0.923 F3000
G90 G0 Z2
G91
G0 X4.000 Y-4.923
G90 G1 Z0 F3000
G91
G1 X-3.077 Y0.000 F3000
G90 G0 Z2
G91
G0 X1.846 Y-1.385
G90 G1 Z0 F3000
G91
G1 X-1.077 Y1.231 F3000
G1 X0.308 Y-0.615 F3000
G1 X-1.385 Y-0.923 F3000
G90 G0 Z2
G91
G0 X0.154 Y-1.538
G90 G1 Z0 F3000
G91
G1 X-0.769 Y0.000 F3000
G90 G0 Z2
G91
G0 X3.385 Y-5.538
G90 G1 Z0 F3000
G91
G1 X-1.692 Y0.000 F3000
G90 G0 Z2
G91
G0 X2.000 Y0.000
G90 G1 Z0 F3000
G91
G1 X-0.615 Y0.769 F3000
G1 X-0.923 Y0.615 F3000
G1 X-0.615 Y0.000 F3000
G1 X0.000 Y-1.692 F3000
G1 X-0.154 Y0.308 F3000
G1 X-0.462 Y0.000 F3000
G90 G0 Z2
G91
G0 X3.231 Y-4.154
G90 G1 Z0 F3000
G91
G1 X0.000 Y-0.462 F3000
G1 X-1.077 Y-0.615 F3000
G1 X-1.385 Y0.000 F3000
G1 X-0.615 Y0.308 F3000
G1 X0.000 Y-0.154 F3000
G1 X-0.308 Y0.462 F3000
G1 X0.000 Y0.615 F3000
G1 X0.769 Y0.615 F3000
G1 X1.538 Y0.000 F3000
G1 X0.462 Y-0.154 F3000
G1 X0.462 Y-0.615 F3000
G1 X-0.462 Y0.462 F3000
G90 G0 Z2
G91
G0 X3.846 Y1.231
G90 G1 Z0 F3000
G91
G1 X2.615 Y0.615 F3000
G1 X0.000 Y0.154 F3000
G1 X0.462 Y0.154 F3000
G1 X-0.462 Y0.000 F3000
G1 X0.000 Y0.308 F3000
G1 X-1.538 Y0.154 F3000
G1 X-0.308 Y0.308 F3000
G1 X-0.769 Y0.154 F3000
G90 G0 Z2
